[{"OBJECT_NAME":"ZHUHAI-1 OVS-02","OBJECT_ID":"2018-040B","EPOCH":"2026-03-09T23:28:43.397184","MEAN_MOTION":15.23701521,"ECCENTRICITY":0.00020716,"INCLINATION":97.0496,"RA_OF_ASC_NODE":92.136,"ARG_OF_PERICENTER":226.172,"MEAN_ANOMALY":133.9347,"EPHEMERIS_TYPE":0,"CLASSIFICATION_TYPE":"U","NORAD_CAT_ID":43440,"ELEMENT_SET_NO":999,"REV_AT_EPOCH":43760,"BSTAR":0.0003025193,"MEAN_MOTION_DOT":7.199e-5,"MEAN_MOTION_DDOT":0},{"OBJECT_NAME":"CZ-6A DEB","OBJECT_ID":"2024-140LQ","EPOCH":"2026-03-09T12:39:56.979648","MEAN_MOTION":14.85929139,"ECCENTRICITY":0.01771612,"INCLINATION":88.9207,"RA_OF_ASC_NODE":273.583,"ARG_OF_PERICENTER":149.2711,"MEAN_ANOMALY":211.9037,"EPHEMERIS_TYPE":0,"CLASSIFICATION_TYPE":"U","NORAD_CAT_ID":60965,"ELEMENT_SET_NO":999,"REV_AT_EPOCH":8358,"BSTAR":0.00081105729,"MEAN_MOTION_DOT":9.447e-5,"MEAN_MOTION_DDOT":0}]
